{
  "type": "FeatureCollection",
  "features": [
    {
      "type": "Feature",
      "properties": {
        "norad_id": 41773,
        "name": "SKYSAT-C2",
        "group": "resource",
        "lat": 4.061129885065363,
        "lon": -163.51885151521077,
        "alt_km": 458.76945480987433,
        "timestamp": "2025-12-17T15:50:09.434283+00:00",
        "meta_object_name": "SKYSAT-C2",
        "meta_object_id": "2016-058D",
        "meta_epoch": "2025-12-17T01:00:53.137152",
        "meta_mean_motion": 15.37369268,
        "meta_eccentricity": 0.00037823,
        "meta_inclination": 97.0359,
        "meta_ra_of_asc_node": 15.3872,
        "meta_arg_of_pericenter": 23.474,
        "meta_mean_anomaly": 336.6678,
        "meta_ephemeris_type": 0,
        "meta_classification_type": "U",
        "meta_norad_cat_id": 41773,
        "meta_element_set_no": 999,
        "meta_rev_at_epoch": 51702,
        "meta_bstar": 0.00027040004,
        "meta_mean_motion_dot": 9.831e-05,
        "meta_mean_motion_ddot": 0,
        "tle_line1": "1 41773U 16058D   25351.04228168  .00009831  00000+0  27040-3 0  9995",
        "tle_line2": "2 41773  97.0359  15.3872 0003782  23.4740 336.6678 15.37369268517027"
      },
      "geometry": {
        "type": "Point",
        "coordinates": [
          -163.51885151521077,
          4.061129885065363
        ]
      }
    },
    {
      "type": "Feature",
      "properties": {
        "norad_id": 41774,
        "name": "SKYSAT-C3",
        "group": "resource",
        "lat": 48.50887840184176,
        "lon": -146.91840091921318,
        "alt_km": 427.2304200308454,
        "timestamp": "2025-12-17T15:50:09.434294+00:00",
        "meta_object_name": "SKYSAT-C3",
        "meta_object_id": "2016-058E",
        "meta_epoch": "2025-12-17T01:16:38.290944",
        "meta_mean_motion": 15.44550815,
        "meta_eccentricity": 0.00018404,
        "meta_inclination": 96.9297,
        "meta_ra_of_asc_node": 24.5989,
        "meta_arg_of_pericenter": 107.4395,
        "meta_mean_anomaly": 252.7056,
        "meta_ephemeris_type": 0,
        "meta_classification_type": "U",
        "meta_norad_cat_id": 41774,
        "meta_element_set_no": 999,
        "meta_rev_at_epoch": 51792,
        "meta_bstar": 0.00035232141,
        "meta_mean_motion_dot": 0.00016291,
        "meta_mean_motion_ddot": 0,
        "tle_line1": "1 41774U 16058E   25351.05322096  .00016291  00000+0  35232-3 0  9992",
        "tle_line2": "2 41774  96.9297  24.5989 0001840 107.4395 252.7056 15.44550815517925"
      },
      "geometry": {
        "type": "Point",
        "coordinates": [
          -146.91840091921318,
          48.50887840184176
        ]
      }
    },
    {
      "type": "Feature",
      "properties": {
        "norad_id": 41785,
        "name": "ALSAT 1B",
        "group": "resource",
        "lat": 30.40094315099563,
        "lon": -172.16031310844593,
        "alt_km": 649.0663172972445,
        "timestamp": "2025-12-17T15:50:09.434304+00:00",
        "meta_object_name": "ALSAT 1B",
        "meta_object_id": "2016-059C",
        "meta_epoch": "2025-12-17T07:00:17.417664",
        "meta_mean_motion": 14.72081596,
        "meta_eccentricity": 0.00107792,
        "meta_inclination": 97.7814,
        "meta_ra_of_asc_node": 2.8858,
        "meta_arg_of_pericenter": 90.3138,
        "meta_mean_anomaly": 269.9305,
        "meta_ephemeris_type": 0,
        "meta_classification_type": "U",
        "meta_norad_cat_id": 41785,
        "meta_element_set_no": 999,
        "meta_rev_at_epoch": 49381,
        "meta_bstar": 0.00010442468,
        "meta_mean_motion_dot": 6.1e-06,
        "meta_mean_motion_ddot": 0,
        "tle_line1": "1 41785U 16059C   25351.29186826  .00000610  00000+0  10442-3 0  9994",
        "tle_line2": "2 41785  97.7814   2.8858 0010779  90.3138 269.9305 14.72081596493814"
      },
      "geometry": {
        "type": "Point",
        "coordinates": [
          -172.16031310844593,
          30.40094315099563
        ]
      }
    },
    {
      "type": "Feature",
      "properties": {
        "norad_id": 41787,
        "name": "PATHFINDER 1",
        "group": "resource",
        "lat": 35.569630139724694,
        "lon": 179.8406393425399,
        "alt_km": 662.6608185267332,
        "timestamp": "2025-12-17T15:50:09.434315+00:00",
        "meta_object_name": "PATHFINDER 1",
        "meta_object_id": "2016-059E",
        "meta_epoch": "2025-12-17T07:00:07.098912",
        "meta_mean_motion": 14.67329255,
        "meta_eccentricity": 0.00299513,
        "meta_inclination": 97.8137,
        "meta_ra_of_asc_node": 353.8541,
        "meta_arg_of_pericenter": 67.3874,
        "meta_mean_anomaly": 293.0495,
        "meta_ephemeris_type": 0,
        "meta_classification_type": "U",
        "meta_norad_cat_id": 41787,
        "meta_element_set_no": 999,
        "meta_rev_at_epoch": 49303,
        "meta_bstar": 0.00013070258,
        "meta_mean_motion_dot": 6.96e-06,
        "meta_mean_motion_ddot": 0,
        "tle_line1": "1 41787U 16059E   25351.29174883  .00000696  00000+0  13070-3 0  9990",
        "tle_line2": "2 41787  97.8137 353.8541 0029951  67.3874 293.0495 14.67329255493039"
      },
      "geometry": {
        "type": "Point",
        "coordinates": [
          179.8406393425399,
          35.569630139724694
        ]
      }
    },
    {
      "type": "Feature",
      "properties": {
        "norad_id": 41790,
        "name": "SCATSAT 1",
        "group": "resource",
        "lat": -18.538559681632215,
        "lon": 51.14466957391887,
        "alt_km": 663.5434806781905,
        "timestamp": "2025-12-17T15:50:09.434326+00:00",
        "meta_object_name": "SCATSAT 1",
        "meta_object_id": "2016-059H",
        "meta_epoch": "2025-12-17T02:55:51.287232",
        "meta_mean_motion": 14.78951357,
        "meta_eccentricity": 0.00563914,
        "meta_inclination": 98.146,
        "meta_ra_of_asc_node": 47.8471,
        "meta_arg_of_pericenter": 114.1558,
        "meta_mean_anomaly": 246.5563,
        "meta_ephemeris_type": 0,
        "meta_classification_type": "U",
        "meta_norad_cat_id": 41790,
        "meta_element_set_no": 999,
        "meta_rev_at_epoch": 7467,
        "meta_bstar": 0.00018453947,
        "meta_mean_motion_dot": 1.342e-05,
        "meta_mean_motion_ddot": 0,
        "tle_line1": "1 41790U 16059H   25351.12212138  .00001342  00000+0  18454-3 0  9992",
        "tle_line2": "2 41790  98.1460  47.8471 0056391 114.1558 246.5563 14.78951357 74676"
      },
      "geometry": {
        "type": "Point",
        "coordinates": [
          51.14466957391887,
          -18.538559681632215
        ]
      }
    },
    {
      "type": "Feature",
      "properties": {
        "norad_id": 41875,
        "name": "GOKTURK 1A",
        "group": "resource",
        "lat": 38.849827099891684,
        "lon": 70.58172506150397,
        "alt_km": 680.862084929795,
        "timestamp": "2025-12-17T15:50:09.434336+00:00",
        "meta_object_name": "GOKTURK 1A",
        "meta_object_id": "2016-073A",
        "meta_epoch": "2025-12-17T06:59:13.479072",
        "meta_mean_motion": 14.62784631,
        "meta_eccentricity": 0.00012661,
        "meta_inclination": 98.143,
        "meta_ra_of_asc_node": 243.5956,
        "meta_arg_of_pericenter": 78.8224,
        "meta_mean_anomaly": 281.3121,
        "meta_ephemeris_type": 0,
        "meta_classification_type": "U",
        "meta_norad_cat_id": 41875,
        "meta_element_set_no": 999,
        "meta_rev_at_epoch": 48223,
        "meta_bstar": 6.9210247e-05,
        "meta_mean_motion_dot": 3.06e-06,
        "meta_mean_motion_ddot": 0,
        "tle_line1": "1 41875U 16073A   25351.29112823  .00000306  00000+0  69210-4 0  9996",
        "tle_line2": "2 41875  98.1430 243.5956 0001266  78.8224 281.3121 14.62784631482231"
      },
      "geometry": {
        "type": "Point",
        "coordinates": [
          70.58172506150397,
          38.849827099891684
        ]
      }
    },
    {
      "type": "Feature",
      "properties": {
        "norad_id": 41877,
        "name": "RESOURCESAT-2A",
        "group": "resource",
        "lat": -1.3728211515063333,
        "lon": -118.72504212450633,
        "alt_km": 822.4455137984096,
        "timestamp": "2025-12-17T15:50:09.434346+00:00",
        "meta_object_name": "RESOURCESAT-2A",
        "meta_object_id": "2016-074A",
        "meta_epoch": "2025-12-17T08:13:44.699808",
        "meta_mean_motion": 14.2160077,
        "meta_eccentricity": 0.00012873,
        "meta_inclination": 98.7755,
        "meta_ra_of_asc_node": 61.172,
        "meta_arg_of_pericenter": 232.5835,
        "meta_mean_anomaly": 127.5226,
        "meta_ephemeris_type": 0,
        "meta_classification_type": "U",
        "meta_norad_cat_id": 41877,
        "meta_element_set_no": 999,
        "meta_rev_at_epoch": 46846,
        "meta_bstar": -7.09449e-07,
        "meta_mean_motion_dot": -4.6e-07,
        "meta_mean_motion_ddot": 0,
        "tle_line1": "1 41877U 16074A   25351.34287847 -.00000046  00000+0 -70945-6 0  9996",
        "tle_line2": "2 41877  98.7755  61.1720 0001287 232.5835 127.5226 14.21600770468464"
      },
      "geometry": {
        "type": "Point",
        "coordinates": [
          -118.72504212450633,
          -1.3728211515063333
        ]
      }
    }
  ]
}